{"type": "FeatureCollection", "features": [{"type": "Feature", "properties": {"norad_id": 24876, "name": "GPS BIIR-2  (PRN 13)", "group": "gnss", "lat": 23.682192593213657, "lon": -91.80989869084061, "alt_km": 20195.148165612474, "timestamp": "2025-12-23T09:49:07.324442+00:00", "meta": {"OBJECT_NAME": "GPS BIIR-2  (PRN 13)", "OBJECT_ID": "1997-035A", "EPOCH": "2025-12-22T04:56:13.490880", "MEAN_MOTION": 2.00563727, "ECCENTRICITY": 0.00968316, "INCLINATION": 55.8997, "RA_OF_ASC_NODE": 105.4987, "ARG_OF_PERICENTER": 56.961, "MEAN_ANOMALY": 303.9513, "EPHEMERIS_TYPE": 0, "CLASSIFICATION_TYPE": "U", "NORAD_CAT_ID": 24876, "ELEMENT_SET_NO": 999, "REV_AT_EPOCH": 20840, "BSTAR": 0, "MEAN_MOTION_DOT": 1.2e-07, "MEAN_MOTION_DDOT": 0}, "tle": {"line1": "1 24876U 97035A   25356.20571170  .00000012  00000+0  00000+0 0  9996", "line2": "2 24876  55.8997 105.4987 0096831  56.9610 303.9513  2.00563727208400"}}, "geometry": {"type": "Point", "coordinates": [-91.80989869084061, 23.682192593213657]}}, {"type": "Feature", "properties": {"norad_id": 26360, "name": "GPS BIIR-4  (PRN 20)", "group": "gnss", "lat": -46.28215399885471, "lon": -106.59550130804159, "alt_km": 20083.667641976936, "timestamp": "2025-12-23T09:49:07.324487+00:00", "meta": {"OBJECT_NAME": "GPS BIIR-4  (PRN 20)", "OBJECT_ID": "2000-025A", "EPOCH": "2025-12-22T19:27:46.815264", "MEAN_MOTION": 2.0056687, "ECCENTRICITY": 0.00389018, "INCLINATION": 55.0511, "RA_OF_ASC_NODE": 26.4306, "ARG_OF_PERICENTER": 242.9472, "MEAN_ANOMALY": 287.0485, "EPHEMERIS_TYPE": 0, "CLASSIFICATION_TYPE": "U", "NORAD_CAT_ID": 26360, "ELEMENT_SET_NO": 999, "REV_AT_EPOCH": 18773, "BSTAR": 0, "MEAN_MOTION_DOT": -5.8e-07, "MEAN_MOTION_DDOT": 0}, "tle": {"line1": "1 26360U 00025A   25356.81095851 -.00000058  00000+0  00000+0 0  9994", "line2": "2 26360  55.0511  26.4306 0038901 242.9472 287.0485  2.00566870187732"}}, "geometry": {"type": "Point", "coordinates": [-106.59550130804159, -46.28215399885471]}}, {"type": "Feature", "properties": {"norad_id": 26407, "name": "GPS BIIR-5  (PRN 22)", "group": "gnss", "lat": 54.17313926607916, "lon": -60.83987168280292, "alt_km": 20430.266409099313, "timestamp": "2025-12-23T09:49:07.324521+00:00", "meta": {"OBJECT_NAME": "GPS BIIR-5  (PRN 22)", "OBJECT_ID": "2000-040A", "EPOCH": "2025-12-22T19:22:12.785952", "MEAN_MOTION": 2.00568096, "ECCENTRICITY": 0.01254555, "INCLINATION": 54.8886, "RA_OF_ASC_NODE": 222.1687, "ARG_OF_PERICENTER": 301.9761, "MEAN_ANOMALY": 64.903, "EPHEMERIS_TYPE": 0, "CLASSIFICATION_TYPE": "U", "NORAD_CAT_ID": 26407, "ELEMENT_SET_NO": 999, "REV_AT_EPOCH": 18641, "BSTAR": 0, "MEAN_MOTION_DOT": 6.7e-07, "MEAN_MOTION_DDOT": 0}, "tle": {"line1": "1 26407U 00040A   25356.80709243  .00000067  00000+0  00000+0 0  9998", "line2": "2 26407  54.8886 222.1687 0125455 301.9761  64.9030  2.00568096186415"}}, "geometry": {"type": "Point", "coordinates": [-60.83987168280292, 54.17313926607916]}}, {"type": "Feature", "properties": {"norad_id": 27663, "name": "GPS BIIR-8  (PRN 16)", "group": "gnss", "lat": -30.200120041297144, "lon": 66.10465522309951, "alt_km": 20566.413229434555, "timestamp": "2025-12-23T09:49:07.324538+00:00", "meta": {"OBJECT_NAME": "GPS BIIR-8  (PRN 16)", "OBJECT_ID": "2003-005A", "EPOCH": "2025-12-22T15:01:01.940160", "MEAN_MOTION": 2.00570357, "ECCENTRICITY": 0.0147807, "INCLINATION": 54.9212, "RA_OF_ASC_NODE": 221.985, "ARG_OF_PERICENTER": 51.9453, "MEAN_ANOMALY": 319.9429, "EPHEMERIS_TYPE": 0, "CLASSIFICATION_TYPE": "U", "NORAD_CAT_ID": 27663, "ELEMENT_SET_NO": 999, "REV_AT_EPOCH": 16777, "BSTAR": 0, "MEAN_MOTION_DOT": 6.7e-07, "MEAN_MOTION_DDOT": 0}, "tle": {"line1": "1 27663U 03005A   25356.62571690  .00000067  00000+0  00000+0 0  9990", "line2": "2 27663  54.9212 221.9850 0147807  51.9453 319.9429  2.00570357167774"}}, "geometry": {"type": "Point", "coordinates": [66.10465522309951, -30.200120041297144]}}, {"type": "Feature", "properties": {"norad_id": 28190, "name": "GPS BIIR-11 (PRN 19)", "group": "gnss", "lat": 12.461189623060598, "lon": -68.3178945047867, "alt_km": 20436.526970664116, "timestamp": "2025-12-23T09:49:07.324552+00:00", "meta": {"OBJECT_NAME": "GPS BIIR-11 (PRN 19)", "OBJECT_ID": "2004-009A", "EPOCH": "2025-12-22T01:59:41.237952", "MEAN_MOTION": 2.00560473, "ECCENTRICITY": 0.01084919, "INCLINATION": 54.9772, "RA_OF_ASC_NODE": 282.8425, "ARG_OF_PERICENTER": 167.7907, "MEAN_ANOMALY": 330.6754, "EPHEMERIS_TYPE": 0, "CLASSIFICATION_TYPE": "U", "NORAD_CAT_ID": 28190, "ELEMENT_SET_NO": 999, "REV_AT_EPOCH": 15939, "BSTAR": 0, "MEAN_MOTION_DOT": -2.4e-07, "MEAN_MOTION_DDOT": 0}, "tle": {"line1": "1 28190U 04009A   25356.08311618 -.00000024  00000+0  00000+0 0  9997", "line2": "2 28190  54.9772 282.8425 0108491 167.7907 330.6754  2.00560473159399"}}, "geometry": {"type": "Point", "coordinates": [-68.3178945047867, 12.461189623060598]}}, {"type": "Feature", "properties": {"norad_id": 28474, "name": "GPS BIIR-13 (PRN 02)", "group": "gnss", "lat": 53.432967659794706, "lon": 41.341301583414094, "alt_km": 20452.211398736716, "timestamp": "2025-12-23T09:49:07.324566+00:00", "meta": {"OBJECT_NAME": "GPS BIIR-13 (PRN 02)", "OBJECT_ID": "2004-045A", "EPOCH": "2025-12-21T13:21:16.085088", "MEAN_MOTION": 2.00569985, "ECCENTRICITY": 0.0170919, "INCLINATION": 55.2363, "RA_OF_ASC_NODE": 332.0513, "ARG_OF_PERICENTER": 309.6441, "MEAN_ANOMALY": 228.908, "EPHEMERIS_TYPE": 0, "CLASSIFICATION_TYPE": "U", "NORAD_CAT_ID": 28474, "ELEMENT_SET_NO": 999, "REV_AT_EPOCH": 15486, "BSTAR": 0, "MEAN_MOTION_DOT": -7.1e-07, "MEAN_MOTION_DDOT": 0}, "tle": {"line1": "1 28474U 04045A   25355.55643617 -.00000071  00000+0  00000+0 0  9992", "line2": "2 28474  55.2363 332.0513 0170919 309.6441 228.9080  2.00569985154869"}}, "geometry": {"type": "Point", "coordinates": [41.341301583414094, 53.432967659794706]}}, {"type": "Feature", "properties": {"norad_id": 28874, "name": "GPS BIIRM-1 (PRN 17)", "group": "gnss", "lat": 29.542766815973195, "lon": -56.39546885974281, "alt_km": 20251.988122556628, "timestamp": "2025-12-23T09:49:07.324579+00:00", "meta": {"OBJECT_NAME": "GPS BIIRM-1 (PRN 17)", "OBJECT_ID": "2005-038A", "EPOCH": "2025-12-22T20:53:47.343840", "MEAN_MOTION": 2.00577767, "ECCENTRICITY": 0.01313247, "INCLINATION": 55.0229, "RA_OF_ASC_NODE": 280.2931, "ARG_OF_PERICENTER": 293.7898, "MEAN_ANOMALY": 72.9645, "EPHEMERIS_TYPE": 0, "CLASSIFICATION_TYPE": "U", "NORAD_CAT_ID": 28874, "ELEMENT_SET_NO": 999, "REV_AT_EPOCH": 14830, "BSTAR": 0, "MEAN_MOTION_DOT": -2e-07, "MEAN_MOTION_DDOT": 0}, "tle": {"line1": "1 28874U 05038A   25356.87068685 -.00000020  00000+0  00000+0 0  9995", "line2": "2 28874  55.0229 280.2931 0131324 293.7898  72.9645  2.00577767148309"}}, "geometry": {"type": "Point", "coordinates": [-56.39546885974281, 29.542766815973195]}}, {"type": "Feature", "properties": {"norad_id": 28899, "name": "INMARSAT 4-F2 (SOUTHPAN/PRN 122)", "group": "gnss", "lat": -1.7165644454682907, "lon": 23.075041548505663, "alt_km": 35790.002401122285, "timestamp": "2025-12-23T09:49:07.324593+00:00", "meta": {"OBJECT_NAME": "INMARSAT 4-F2 (SOUTHPAN/PRN 122)", "OBJECT_ID": "2005-044A", "EPOCH": "2025-12-22T13:50:50.502624", "MEAN_MOTION": 1.00272096, "ECCENTRICITY": 0.00025012, "INCLINATION": 4.8635, "RA_OF_ASC_NODE": 43.7083, "ARG_OF_PERICENTER": 228.8371, "MEAN_ANOMALY": 170.0497, "EPHEMERIS_TYPE": 0, "CLASSIFICATION_TYPE": "U", "NORAD_CAT_ID": 28899, "ELEMENT_SET_NO": 999, "REV_AT_EPOCH": 7375, "BSTAR": 0, "MEAN_MOTION_DOT": -2.41e-06, "MEAN_MOTION_DDOT": 0}, "tle": {"line1": "1 28899U 05044A   25356.57697341 -.00000241  00000+0  00000+0 0  9998", "line2": "2 28899   4.8635  43.7083 0002501 228.8371 170.0497  1.00272096 73755"}}, "geometry": {"type": "Point", "coordinates": [23.075041548505663, -1.7165644454682907]}}, {"type": "Feature", "properties": {"norad_id": 29486, "name": "GPS BIIRM-2 (PRN 31)", "group": "gnss", "lat": -46.79297402873751, "lon": 109.32280559147443, "alt_km": 20308.454640648324, "timestamp": "2025-12-23T09:49:07.324606+00:00", "meta": {"OBJECT_NAME": "GPS BIIRM-2 (PRN 31)", "OBJECT_ID": "2006-042A", "EPOCH": "2025-12-21T12:25:39.335232", "MEAN_MOTION": 2.00553827, "ECCENTRICITY": 0.01073004, "INCLINATION": 54.6951, "RA_OF_ASC_NODE": 158.3926, "ARG_OF_PERICENTER": 52.1628, "MEAN_ANOMALY": 320.0686, "EPHEMERIS_TYPE": 0, "CLASSIFICATION_TYPE": "U", "NORAD_CAT_ID": 29486, "ELEMENT_SET_NO": 999, "REV_AT_EPOCH": 14083, "BSTAR": 0, "MEAN_MOTION_DOT": 7.1e-07, "MEAN_MOTION_DDOT": 0}, "tle": {"line1": "1 29486U 06042A   25355.51781638  .00000071  00000+0  00000+0 0  9996", "line2": "2 29486  54.6951 158.3926 0107300  52.1628 320.0686  2.00553827140833"}}, "geometry": {"type": "Point", "coordinates": [109.32280559147443, -46.79297402873751]}}, {"type": "Feature", "properties": {"norad_id": 29601, "name": "GPS BIIRM-3 (PRN 12)", "group": "gnss", "lat": -4.005767988073976, "lon": -141.82686811791703, "alt_km": 20189.788693099614, "timestamp": "2025-12-23T09:49:07.324619+00:00", "meta": {"OBJECT_NAME": "GPS BIIRM-3 (PRN 12)", "OBJECT_ID": "2006-052A", "EPOCH": "2025-12-21T22:05:09.010752", "MEAN_MOTION": 2.00574213, "ECCENTRICITY": 0.00880316, "INCLINATION": 54.9687, "RA_OF_ASC_NODE": 221.0338, "ARG_OF_PERICENTER": 87.5441, "MEAN_ANOMALY": 273.5576, "EPHEMERIS_TYPE": 0, "CLASSIFICATION_TYPE": "U", "NORAD_CAT_ID": 29601, "ELEMENT_SET_NO": 999, "REV_AT_EPOCH": 13985, "BSTAR": 0, "MEAN_MOTION_DOT": 7e-07, "MEAN_MOTION_DDOT": 0}, "tle": {"line1": "1 29601U 06052A   25355.92024318  .00000070  00000+0  00000+0 0  9995", "line2": "2 29601  54.9687 221.0338 0088031  87.5441 273.5576  2.00574213139852"}}, "geometry": {"type": "Point", "coordinates": [-141.82686811791703, -4.005767988073976]}}]}